KAITUO 1B               
1 40912U 15049P   18041.77207667  .00000826  00000-0  43298-4 0  9997
2 40912  97.4518  50.9106 0017361  90.9224 356.2223 15.18429122132483
TIANWANG 1C (TW-1C)     
1 40926U 15051B   18042.21543005  .00006324  00000-0  12691-3 0  9995
2 40926  97.2013  85.2140 0011196  29.6560  41.7159 15.46970848133827
TIANWANG 1B (TW-1B)     
1 40927U 15051C   18041.81735782  .00005971  00000-0  12486-3 0  9995
2 40927  97.2096  84.7174 0011590  41.1395  46.6032 15.45785342133683
TIANWANG 1A (TW-1A)     
1 40928U 15051D   18041.86577546  .00002547  00000-0  70240-4 0  9992
2 40928  97.2017  78.3055 0014109  61.6889 289.1540 15.37930192133356
LAPAN-A2 (IO-86)        
1 40931U 15052B   18041.47922421  .00000830  00000-0  26620-4 0  9996
2 40931   5.9981 333.5598 0013212  14.1936 345.8592 14.76565131128242
LQSAT                   
1 40958U 15057A   18042.22595526  .00000033  00000-0  12828-4 0  9996
2 40958  97.9532 118.0624 0018897  25.3854 334.8292 14.73015000126309
CHUBUSAT-2              
1 41338U 16012B   18042.20775791  .00000330  00000-0  19071-4 0  9990
2 41338  31.0045  34.0150 0013900 265.6144  94.2903 14.99916719108909
CHUBUSAT-3              
1 41339U 16012C   18042.10435271  .00000256  00000-0  13161-4 0  9997
2 41339  31.0105  33.4503 0013924 271.0337  88.8701 15.00108017108871
OUFTI-1                 
1 41458U 16025C   18042.20110721  .00000864  00000-0  49772-4 0  9996
2 41458  98.1540  98.2477 0170422 209.4078 149.7476 15.04231660 98490
E-ST@R-II               
1 41459U 16025D   18041.78764635  .00000290  00000-0  20045-4 0  9993
2 41459  98.1531  97.6970 0171069 211.4107 147.6795 15.03984794 98422
AAUSAT 4                
1 41460U 16025E   18042.14581195  .00002053  00000-0  11101-3 0  9995
2 41460  98.1495  98.3954 0163422 207.0247 152.2403 15.05270663 98527
NUSAT 1 (LO-87)         
1 41557U 16033B   18041.92078403  .00001219  00000-0  47338-4 0  9994
2 41557  97.4445 126.3475 0012501 240.5734 119.4258 15.27977999 94872
BEESAT-4                
1 41619U 16040W   18042.16128683  .00001235  00000-0  57544-4 0  9992
2 41619  97.4322 106.9744 0010504 318.0054  42.0375 15.21729661 78929
PRATHAM                 
1 41783U 16059A   18041.80708292  .00000039  00000-0  16851-4 0  9991
2 41783  98.1356 105.3013 0034673 131.1618 229.2584 14.62899285 73482
ALSAT 1N                
1 41789U 16059G   18042.07550916  .00000030  00000-0  14816-4 0  9995
2 41789  98.1354 106.5341 0029792 122.7611 237.6473 14.64125297 73564
NAYIF-1 (EO-88)         
1 42017U 17008BX  18041.91927779  .00001360  00000-0  59066-4 0  9995
2 42017  97.4649 107.6564 0008138 102.1053 258.1096 15.24019263 54830
LILACSAT-1              
1 42725U 98067ME  18042.17894905  .00017289  00000-0  18706-3 0  9990
2 42725  51.6371 277.9923 0005861 122.4764 237.6798 15.63678788 40768
MAX VALIER SAT          
1 42778U 17036P   18041.74932275  .00000856  00000-0  41606-4 0  9998
2 42778  97.4212 103.4677 0013740 146.9927 213.2169 15.21023741 35284
FOX-1B (AO-91)          
1 43017U 17073E   18041.81501688  .00000915  00000-0  78007-4 0  9995
2 43017  97.6994 338.2902 0259639 323.2628  35.1026 14.77893086 12449
FOX-1D (AO-92)          
1 43137U 18004AC  18041.84874693  .00000957  00000-0  44480-4 0  9999
2 43137  97.5514 104.1114 0009776 173.2820 186.8548 15.22415257  4496
